0 SL-12 R/B(2)
1 11728U 80016D   13284.18648154 -.00000069  00000-0  10000-3 0  7728
2 11728 015.4820 342.4382 0018515 161.4003 198.6737 00.97621182 74381
0 SL-12 R/B(2)
1 11728U 80016D   13288.28376680 -.00000114  00000-0  10000-3 0  7737
2 11728 015.4803 342.3949 0018520 161.4758 198.5849 00.97621950 74424
0 SL-12 R/B(2)
1 11728U 80016D   13290.33240773 -.00000156  00000-0  10000-3 0  7746
2 11728 015.4794 342.3744 0018567 161.7850 198.2706 00.97622700 74448
0 SL-12 R/B(2)
1 11728U 80016D   13292.38102915 -.00000191  00000-0  10000-3 0  7758
2 11728 015.4785 342.3547 0018558 161.9459 198.1051 00.97623322 74461
0 SL-12 R/B(2)
1 11728U 80016D   13295.45395733 -.00000194  00000-0  10000-3 0  7765
2 11728 015.4770 342.3240 0018535 162.1260 197.9277 00.97623339 74491
